COSMOS 1975             
1 19573U 88093A   26170.96782130  .00006554  00000+0  22868-3 0  9993
2 19573  82.5191  14.9043 0011614 162.1340 198.0311 15.29357369 35038
SL-14 R/B               
1 19574U 88093B   26171.36957759  .00000333  00000+0  35326-4 0  9993
2 19574  82.5314 305.6568 0021967  60.6090 354.4514 14.85743831 16265
SL-16 R/B               
1 19650U 88102B   26171.39570358  .00000027  00000+0  38049-4 0  9993
2 19650  71.0001 295.3875 0015603 220.7820 139.2137 14.16164120941430
INTERCOSMOS 24          
1 20261U 89080A   26171.43164421  .00000658  00000+0  18514-3 0  9998
2 20261  82.6062  37.5341 1188327  54.3855 316.2175 12.59666413679730
SL-14 R/B               
1 20262U 89080C   26171.28219612  .00000198  00000+0  59369-4 0  9998
2 20262  82.5936 107.3194 1228608 310.3183  39.6662 12.50571992672972
DELTA 1 R/B             
1 20323U 89089B   26171.46101461  .00000208  00000+0  59867-4 0  9992
2 20323  97.0636   2.4954 0069528 156.7063 203.7312 14.50732963910632
ARIANE 40 R/B           
1 20443U 90005H   26171.44961895  .00000163  00000+0  65357-4 0  9999
2 20443  98.2957 228.9643 0008874 253.1344 106.8872 14.39928811907596
DELTA 2 R/B(1)          
1 20453U 90008B   26171.43537697  .00078030  00000+0  56665-3 0  9990
2 20453  35.5993 213.9199 0064613 145.5981 214.8966 15.69273416942215
COSMOS 2058             
1 20465U 90010A   26171.44438716  .00003199  00000+0  18442-3 0  9994
2 20465  82.4691 306.1427 0008856 347.7217  12.3796 15.12035181957769
SL-14 R/B               
1 20466U 90010B   26171.40512806  .00000287  00000+0  31788-4 0  9998
2 20466  82.5015 170.9227 0018822 325.2529  34.7455 14.83647853943719
SL-14 R/B               
1 20511U 90018B   26171.38680630  .00000308  00000+0  35499-4 0  9992
2 20511  82.5212 127.1170 0017580 112.0162 248.2922 14.82217894937794
HST                     
1 20580U 90037B   26171.07700591  .00005529  00000+0  17304-3 0  9998
2 20580  28.4722  60.8244 0001639 173.2571 186.8048 15.30775367789015
SL-16 R/B               
1 20625U 90046B   26171.19996259 -.00000004  00000+0  22302-4 0  9998
2 20625  71.0002  82.6208 0013104 157.1855 202.9852 14.15027279862893
