[
    {
        "OBJECT_NAME": "COSMOS 1975",
        "OBJECT_ID": "1988-093A",
        "EPOCH": "2026-06-19T23:13:39.760320",
        "MEAN_MOTION": 15.29357369,
        "ECCENTRICITY": 0.00116142,
        "INCLINATION": 82.5191,
        "RA_OF_ASC_NODE": 14.9043,
        "ARG_OF_PERICENTER": 162.134,
        "MEAN_ANOMALY": 198.0311,
        "EPHEMERIS_TYPE": 0,
        "CLASSIFICATION_TYPE": "U",
        "NORAD_CAT_ID": 19573,
        "ELEMENT_SET_NO": 999,
        "REV_AT_EPOCH": 3503,
        "BSTAR": 0.00022867507,
        "MEAN_MOTION_DOT": 6.554e-05,
        "MEAN_MOTION_DDOT": 0
    },
    {
        "OBJECT_NAME": "SL-14 R/B",
        "OBJECT_ID": "1988-093B",
        "EPOCH": "2026-06-20T08:52:11.503776",
        "MEAN_MOTION": 14.85743831,
        "ECCENTRICITY": 0.0021967,
        "INCLINATION": 82.5314,
        "RA_OF_ASC_NODE": 305.6568,
        "ARG_OF_PERICENTER": 60.609,
        "MEAN_ANOMALY": 354.4514,
        "EPHEMERIS_TYPE": 0,
        "CLASSIFICATION_TYPE": "U",
        "NORAD_CAT_ID": 19574,
        "ELEMENT_SET_NO": 999,
        "REV_AT_EPOCH": 1626,
        "BSTAR": 3.5326e-05,
        "MEAN_MOTION_DOT": 3.33e-06,
        "MEAN_MOTION_DDOT": 0
    },
    {
        "OBJECT_NAME": "SL-16 R/B",
        "OBJECT_ID": "1988-102B",
        "EPOCH": "2026-06-20T09:29:48.789312",
        "MEAN_MOTION": 14.1616412,
        "ECCENTRICITY": 0.0015603,
        "INCLINATION": 71.0001,
        "RA_OF_ASC_NODE": 295.3875,
        "ARG_OF_PERICENTER": 220.782,
        "MEAN_ANOMALY": 139.2137,
        "EPHEMERIS_TYPE": 0,
        "CLASSIFICATION_TYPE": "U",
        "NORAD_CAT_ID": 19650,
        "ELEMENT_SET_NO": 999,
        "REV_AT_EPOCH": 94143,
        "BSTAR": 3.8049e-05,
        "MEAN_MOTION_DOT": 2.7e-07,
        "MEAN_MOTION_DDOT": 0
    },
    {
        "OBJECT_NAME": "INTERCOSMOS 24",
        "OBJECT_ID": "1989-080A",
        "EPOCH": "2026-06-20T10:21:34.059744",
        "MEAN_MOTION": 12.59666413,
        "ECCENTRICITY": 0.1188327,
        "INCLINATION": 82.6062,
        "RA_OF_ASC_NODE": 37.5341,
        "ARG_OF_PERICENTER": 54.3855,
        "MEAN_ANOMALY": 316.2175,
        "EPHEMERIS_TYPE": 0,
        "CLASSIFICATION_TYPE": "U",
        "NORAD_CAT_ID": 20261,
        "ELEMENT_SET_NO": 999,
        "REV_AT_EPOCH": 67973,
        "BSTAR": 0.00018514,
        "MEAN_MOTION_DOT": 6.58e-06,
        "MEAN_MOTION_DDOT": 0
    },
    {
        "OBJECT_NAME": "SL-14 R/B",
        "OBJECT_ID": "1989-080C",
        "EPOCH": "2026-06-20T06:46:21.744768",
        "MEAN_MOTION": 12.50571992,
        "ECCENTRICITY": 0.1228608,
        "INCLINATION": 82.5936,
        "RA_OF_ASC_NODE": 107.3194,
        "ARG_OF_PERICENTER": 310.3183,
        "MEAN_ANOMALY": 39.6662,
        "EPHEMERIS_TYPE": 0,
        "CLASSIFICATION_TYPE": "U",
        "NORAD_CAT_ID": 20262,
        "ELEMENT_SET_NO": 999,
        "REV_AT_EPOCH": 67297,
        "BSTAR": 5.9369e-05,
        "MEAN_MOTION_DOT": 1.98e-06,
        "MEAN_MOTION_DDOT": 0
    },
    {
        "OBJECT_NAME": "DELTA 1 R/B",
        "OBJECT_ID": "1989-089B",
        "EPOCH": "2026-06-20T11:03:51.662304",
        "MEAN_MOTION": 14.50732963,
        "ECCENTRICITY": 0.0069528,
        "INCLINATION": 97.0636,
        "RA_OF_ASC_NODE": 2.4954,
        "ARG_OF_PERICENTER": 156.7063,
        "MEAN_ANOMALY": 203.7312,
        "EPHEMERIS_TYPE": 0,
        "CLASSIFICATION_TYPE": "U",
        "NORAD_CAT_ID": 20323,
        "ELEMENT_SET_NO": 999,
        "REV_AT_EPOCH": 91063,
        "BSTAR": 5.9867e-05,
        "MEAN_MOTION_DOT": 2.08e-06,
        "MEAN_MOTION_DDOT": 0
    },
    {
        "OBJECT_NAME": "ARIANE 40 R/B",
        "OBJECT_ID": "1990-005H",
        "EPOCH": "2026-06-20T10:47:27.077280",
        "MEAN_MOTION": 14.39928811,
        "ECCENTRICITY": 0.0008874,
        "INCLINATION": 98.2957,
        "RA_OF_ASC_NODE": 228.9643,
        "ARG_OF_PERICENTER": 253.1344,
        "MEAN_ANOMALY": 106.8872,
        "EPHEMERIS_TYPE": 0,
        "CLASSIFICATION_TYPE": "U",
        "NORAD_CAT_ID": 20443,
        "ELEMENT_SET_NO": 999,
        "REV_AT_EPOCH": 90759,
        "BSTAR": 6.5357e-05,
        "MEAN_MOTION_DOT": 1.63e-06,
        "MEAN_MOTION_DDOT": 0
    },
    {
        "OBJECT_NAME": "DELTA 2 R/B(1)",
        "OBJECT_ID": "1990-008B",
        "EPOCH": "2026-06-20T10:26:56.570208",
        "MEAN_MOTION": 15.69273416,
        "ECCENTRICITY": 0.0064613,
        "INCLINATION": 35.5993,
        "RA_OF_ASC_NODE": 213.9199,
        "ARG_OF_PERICENTER": 145.5981,
        "MEAN_ANOMALY": 214.8966,
        "EPHEMERIS_TYPE": 0,
        "CLASSIFICATION_TYPE": "U",
        "NORAD_CAT_ID": 20453,
        "ELEMENT_SET_NO": 999,
        "REV_AT_EPOCH": 94221,
        "BSTAR": 0.00056665,
        "MEAN_MOTION_DOT": 0.0007803,
        "MEAN_MOTION_DDOT": 0
    },
    {
        "OBJECT_NAME": "COSMOS 2058",
        "OBJECT_ID": "1990-010A",
        "EPOCH": "2026-06-20T10:39:55.050624",
        "MEAN_MOTION": 15.12035181,
        "ECCENTRICITY": 0.0008856,
        "INCLINATION": 82.4691,
        "RA_OF_ASC_NODE": 306.1427,
        "ARG_OF_PERICENTER": 347.7217,
        "MEAN_ANOMALY": 12.3796,
        "EPHEMERIS_TYPE": 0,
        "CLASSIFICATION_TYPE": "U",
        "NORAD_CAT_ID": 20465,
        "ELEMENT_SET_NO": 999,
        "REV_AT_EPOCH": 95776,
        "BSTAR": 0.00018442,
        "MEAN_MOTION_DOT": 3.199e-05,
        "MEAN_MOTION_DDOT": 0
    },
    {
        "OBJECT_NAME": "SL-14 R/B",
        "OBJECT_ID": "1990-010B",
        "EPOCH": "2026-06-20T09:43:23.064384",
        "MEAN_MOTION": 14.83647853,
        "ECCENTRICITY": 0.0018822,
        "INCLINATION": 82.5015,
        "RA_OF_ASC_NODE": 170.9227,
        "ARG_OF_PERICENTER": 325.2529,
        "MEAN_ANOMALY": 34.7455,
        "EPHEMERIS_TYPE": 0,
        "CLASSIFICATION_TYPE": "U",
        "NORAD_CAT_ID": 20466,
        "ELEMENT_SET_NO": 999,
        "REV_AT_EPOCH": 94371,
        "BSTAR": 3.1788e-05,
        "MEAN_MOTION_DOT": 2.87e-06,
        "MEAN_MOTION_DDOT": 0
    },
    {
        "OBJECT_NAME": "SL-14 R/B",
        "OBJECT_ID": "1990-018B",
        "EPOCH": "2026-06-20T09:17:00.064320",
        "MEAN_MOTION": 14.82217894,
        "ECCENTRICITY": 0.001758,
        "INCLINATION": 82.5212,
        "RA_OF_ASC_NODE": 127.117,
        "ARG_OF_PERICENTER": 112.0162,
        "MEAN_ANOMALY": 248.2922,
        "EPHEMERIS_TYPE": 0,
        "CLASSIFICATION_TYPE": "U",
        "NORAD_CAT_ID": 20511,
        "ELEMENT_SET_NO": 999,
        "REV_AT_EPOCH": 93779,
        "BSTAR": 3.5499e-05,
        "MEAN_MOTION_DOT": 3.08e-06,
        "MEAN_MOTION_DDOT": 0
    },
    {
        "OBJECT_NAME": "HST",
        "OBJECT_ID": "1990-037B",
        "EPOCH": "2026-06-20T01:50:53.310624",
        "MEAN_MOTION": 15.30775367,
        "ECCENTRICITY": 0.00016396,
        "INCLINATION": 28.4722,
        "RA_OF_ASC_NODE": 60.8244,
        "ARG_OF_PERICENTER": 173.2571,
        "MEAN_ANOMALY": 186.8048,
        "EPHEMERIS_TYPE": 0,
        "CLASSIFICATION_TYPE": "U",
        "NORAD_CAT_ID": 20580,
        "ELEMENT_SET_NO": 999,
        "REV_AT_EPOCH": 78901,
        "BSTAR": 0.00017303938,
        "MEAN_MOTION_DOT": 5.529e-05,
        "MEAN_MOTION_DDOT": 0
    },
    {
        "OBJECT_NAME": "SL-16 R/B",
        "OBJECT_ID": "1990-046B",
        "EPOCH": "2026-06-20T04:47:56.767776",
        "MEAN_MOTION": 14.15027279,
        "ECCENTRICITY": 0.00131045,
        "INCLINATION": 71.0002,
        "RA_OF_ASC_NODE": 82.6208,
        "ARG_OF_PERICENTER": 157.1855,
        "MEAN_ANOMALY": 202.9852,
        "EPHEMERIS_TYPE": 0,
        "CLASSIFICATION_TYPE": "U",
        "NORAD_CAT_ID": 20625,
        "ELEMENT_SET_NO": 999,
        "REV_AT_EPOCH": 86289,
        "BSTAR": 2.2302496e-05,
        "MEAN_MOTION_DOT": -4e-08,
        "MEAN_MOTION_DDOT": 0
    }
]